{"type": "FeatureCollection", "features": [ {"type": "Feature", "properties": {"norad_id": 43622, "name": "BEIDOU-3 M13 (C32)", "group": "beidou", "lat": 55.990345355912744, "lon": 147.40273017067105, "alt_km": 21536.484979210934, "timestamp": "2025-12-24T14:43:29.267100+00:00", "meta": {"OBJECT_NAME": "BEIDOU-3 M13 (C32)", "OBJECT_ID": "2018-072A", "EPOCH": "2025-12-22T08:10:31.412640", "MEAN_MOTION": 1.86231166, "ECCENTRICITY": 0.00064111, "INCLINATION": 56.4667, "RA_OF_ASC_NODE": 68.5024, "ARG_OF_PERICENTER": 297.4685, "MEAN_ANOMALY": 62.5173, "EPHEMERIS_TYPE": 0, "CLASSIFICATION_TYPE": "U", "NORAD_CAT_ID": 43622, "ELEMENT_SET_NO": 999, "REV_AT_EPOCH": 4936, "BSTAR": 0, "MEAN_MOTION_DOT": -2.9e-07, "MEAN_MOTION_DDOT": 0}, "tle": {"line1": "1 43622U 18072A   25356.34064135 -.00000029  00000+0  00000+0 0  9992", "line2": "2 43622  56.4667  68.5024 0006411 297.4685  62.5173  1.86231166 49361"}}, "geometry": {"type": "Point", "coordinates": [147.40273017067105, 55.990345355912744]}}, {"type": "Feature", "properties": {"norad_id": 43623, "name": "BEIDOU-3 M14 (C33)", "group": "beidou", "lat": 4.950810474480843, "lon": -114.8489881383586, "alt_km": 21536.629418203505, "timestamp": "2025-12-24T14:43:29.267111+00:00", "meta": {"OBJECT_NAME": "BEIDOU-3 M14 (C33)", "OBJECT_ID": "2018-072B", "EPOCH": "2025-12-23T06:43:13.861056", "MEAN_MOTION": 1.86231163, "ECCENTRICITY": 0.00035931, "INCLINATION": 56.4696, "RA_OF_ASC_NODE": 68.4654, "ARG_OF_PERICENTER": 327.0772, "MEAN_ANOMALY": 32.9541, "EPHEMERIS_TYPE": 0, "CLASSIFICATION_TYPE": "U", "NORAD_CAT_ID": 43623, "ELEMENT_SET_NO": 999, "REV_AT_EPOCH": 4937, "BSTAR": 0, "MEAN_MOTION_DOT": -2.6e-07, "MEAN_MOTION_DDOT": 0}, "tle": {"line1": "1 43623U 18072B   25357.28002154 -.00000026  00000+0  00000+0 0  9997", "line2": "2 43623  56.4696  68.4654 0003593 327.0772  32.9541  1.86231163 49375"}}, "geometry": {"type": "Point", "coordinates": [-114.8489881383586, 4.950810474480843]}}, {"type": "Feature", "properties": {"norad_id": 43647, "name": "BEIDOU-3 M16 (C35)", "group": "beidou", "lat": 49.02348257532868, "lon": 2.025506368939204, "alt_km": 21508.209283869317, "timestamp": "2025-12-24T14:43:29.267123+00:00", "meta": {"OBJECT_NAME": "BEIDOU-3 M16 (C35)", "OBJECT_ID": "2018-078A", "EPOCH": "2025-12-23T23:23:29.633856", "MEAN_MOTION": 1.86232286, "ECCENTRICITY": 0.00074504, "INCLINATION": 54.2515, "RA_OF_ASC_NODE": 306.1287, "ARG_OF_PERICENTER": 20.4306, "MEAN_ANOMALY": 339.606, "EPHEMERIS_TYPE": 0, "CLASSIFICATION_TYPE": "U", "NORAD_CAT_ID": 43647, "ELEMENT_SET_NO": 999, "REV_AT_EPOCH": 4889, "BSTAR": 0, "MEAN_MOTION_DOT": -5.2e-07, "MEAN_MOTION_DDOT": 0}, "tle": {"line1": "1 43647U 18078A   25357.97464854 -.00000052  00000+0  00000+0 0  9993", "line2": "2 43647  54.2515 306.1287 0007450  20.4306 339.6060  1.86232286 48890"}}, "geometry": {"type": "Point", "coordinates": [2.025506368939204, 49.02348257532868]}}, {"type": "Feature", "properties": {"norad_id": 43648, "name": "BEIDOU-3 M15 (C34)", "group": "beidou", "lat": -14.769805861738893, "lon": -64.84764471742668, "alt_km": 21521.12821262956, "timestamp": "2025-12-24T14:43:29.267134+00:00", "meta": {"OBJECT_NAME": "BEIDOU-3 M15 (C34)", "OBJECT_ID": "2018-078B", "EPOCH": "2025-12-24T02:29:34.317888", "MEAN_MOTION": 1.86232361, "ECCENTRICITY": 0.0004049, "INCLINATION": 54.2473, "RA_OF_ASC_NODE": 306.125, "ARG_OF_PERICENTER": 19.767, "MEAN_ANOMALY": 340.256, "EPHEMERIS_TYPE": 0, "CLASSIFICATION_TYPE": "U", "NORAD_CAT_ID": 43648, "ELEMENT_SET_NO": 999, "REV_AT_EPOCH": 4891, "BSTAR": 0, "MEAN_MOTION_DOT": -5.2e-07, "MEAN_MOTION_DDOT": 0}, "tle": {"line1": "1 43648U 18078B   25358.10386942 -.00000052  00000+0  00000+0 0  9991", "line2": "2 43648  54.2473 306.1250 0004049  19.7670 340.2560  1.86232361 48910"}}, "geometry": {"type": "Point", "coordinates": [-64.84764471742668, -14.769805861738893]}}, {"type": "Feature", "properties": {"norad_id": 43683, "name": "BEIDOU-3 G1 (C59)", "group": "beidou", "lat": -0.36383405654539064, "lon": 94.20941493214667, "alt_km": 35783.74791076039, "timestamp": "2025-12-24T14:43:29.267146+00:00", "meta": {"OBJECT_NAME": "BEIDOU-3 G1 (C59)", "OBJECT_ID": "2018-085A", "EPOCH": "2025-12-24T06:55:03.171360", "MEAN_MOTION": 1.00266915, "ECCENTRICITY": 0.00014588, "INCLINATION": 2.635, "RA_OF_ASC_NODE": 102.6249, "ARG_OF_PERICENTER": 43.7654, "MEAN_ANOMALY": 190.4043, "EPHEMERIS_TYPE": 0, "CLASSIFICATION_TYPE": "U", "NORAD_CAT_ID": 43683, "ELEMENT_SET_NO": 999, "REV_AT_EPOCH": 2630, "BSTAR": 0, "MEAN_MOTION_DOT": -2.59e-06, "MEAN_MOTION_DDOT": 0}, "tle": {"line1": "1 43683U 18085A   25358.28823115 -.00000259  00000+0  00000+0 0  9994", "line2": "2 43683   2.6350 102.6249 0001458  43.7654 190.4043  1.00266915 26305"}}, "geometry": {"type": "Point", "coordinates": [94.20941493214667, -0.36383405654539064]}}, {"type": "Feature", "properties": {"norad_id": 43706, "name": "BEIDOU-3 M17 (C36)", "group": "beidou", "lat": -41.751315217778654, "lon": 48.39617952357608, "alt_km": 21528.025439650217, "timestamp": "2025-12-24T14:43:29.267158+00:00", "meta": {"OBJECT_NAME": "BEIDOU-3 M17 (C36)", "OBJECT_ID": "2018-093A", "EPOCH": "2025-12-22T11:03:17.644896", "MEAN_MOTION": 1.86228432, "ECCENTRICITY": 0.00060427, "INCLINATION": 54.173, "RA_OF_ASC_NODE": 188.2918, "ARG_OF_PERICENTER": 307.405, "MEAN_ANOMALY": 284.4943, "EPHEMERIS_TYPE": 0, "CLASSIFICATION_TYPE": "U", "NORAD_CAT_ID": 43706, "ELEMENT_SET_NO": 999, "REV_AT_EPOCH": 4824, "BSTAR": 0, "MEAN_MOTION_DOT": 9.4e-07, "MEAN_MOTION_DDOT": 0}, "tle": {"line1": "1 43706U 18093A   25356.46062089  .00000094  00000+0  00000+0 0  9998", "line2": "2 43706  54.1730 188.2918 0006042 307.4050 284.4943  1.86228432 48248"}}, "geometry": {"type": "Point", "coordinates": [48.39617952357608, -41.751315217778654]}}, {"type": "Feature", "properties": {"norad_id": 43707, "name": "BEIDOU-3 M18 (C37)", "group": "beidou", "lat": -25.39049852114698, "lon": 168.15189494385092, "alt_km": 21516.406646525335, "timestamp": "2025-12-24T14:43:29.267168+00:00", "meta": {"OBJECT_NAME": "BEIDOU-3 M18 (C37)", "OBJECT_ID": "2018-093B", "EPOCH": "2025-12-23T01:12:21.238848", "MEAN_MOTION": 1.86226616, "ECCENTRICITY": 0.0006147, "INCLINATION": 54.1741, "RA_OF_ASC_NODE": 188.2636, "ARG_OF_PERICENTER": 354.1254, "MEAN_ANOMALY": 5.9078, "EPHEMERIS_TYPE": 0, "CLASSIFICATION_TYPE": "U", "NORAD_CAT_ID": 43707, "ELEMENT_SET_NO": 999, "REV_AT_EPOCH": 4825, "BSTAR": 0, "MEAN_MOTION_DOT": 9.6e-07, "MEAN_MOTION_DDOT": 0}, "tle": {"line1": "1 43707U 18093B   25357.05024582  .00000096  00000+0  00000+0 0  9993", "line2": "2 43707  54.1741 188.2636 0006147 354.1254   5.9078  1.86226616 48257"}}, "geometry": {"type": "Point", "coordinates": [168.15189494385092, -25.39049852114698]}}, {"type": "Feature", "properties": {"norad_id": 44231, "name": "BEIDOU-2 G8 (C01)", "group": "beidou", "lat": 0.7115427703624153, "lon": 98.82710596094957, "alt_km": 35805.23447760332, "timestamp": "2025-12-24T14:43:29.267180+00:00", "meta": {"OBJECT_NAME": "BEIDOU-2 G8 (C01)", "OBJECT_ID": "2019-027A", "EPOCH": "2025-12-24T06:56:18.050784", "MEAN_MOTION": 1.00274864, "ECCENTRICITY": 0.00083051, "INCLINATION": 1.6893, "RA_OF_ASC_NODE": 74.7354, "ARG_OF_PERICENTER": 259.2231, "MEAN_ANOMALY": 7.6859, "EPHEMERIS_TYPE": 0, "CLASSIFICATION_TYPE": "U", "NORAD_CAT_ID": 44231, "ELEMENT_SET_NO": 999, "REV_AT_EPOCH": 2432, "BSTAR": 0, "MEAN_MOTION_DOT": -2.26e-06, "MEAN_MOTION_DDOT": 0}, "tle": {"line1": "1 44231U 19027A   25358.28909781 -.00000226  00000+0  00000+0 0  9999", "line2": "2 44231   1.6893  74.7354 0008305 259.2231   7.6859  1.00274864 24321"}}, "geometry": {"type": "Point", "coordinates": [98.82710596094957, 0.7115427703624153]}}, {"type": "Feature", "properties": {"norad_id": 44337, "name": "BEIDOU-3 IGSO-2 (C39)", "group": "beidou", "lat": -55.02177306972231, "lon": 76.78903975837466, "alt_km": 35742.161441138145, "timestamp": "2025-12-24T14:43:29.267192+00:00", "meta": {"OBJECT_NAME": "BEIDOU-3 IGSO-2 (C39)", "OBJECT_ID": "2019-035A", "EPOCH": "2025-12-23T20:34:24.431808", "MEAN_MOTION": 1.00267916, "ECCENTRICITY": 0.00378021, "INCLINATION": 55.2291, "RA_OF_ASC_NODE": 160.4037, "ARG_OF_PERICENTER": 202.4581, "MEAN_ANOMALY": 157.7229, "EPHEMERIS_TYPE": 0, "CLASSIFICATION_TYPE": "U", "NORAD_CAT_ID": 44337, "ELEMENT_SET_NO": 999, "REV_AT_EPOCH": 2391, "BSTAR": 0, "MEAN_MOTION_DOT": -7.4e-07, "MEAN_MOTION_DDOT": 0}, "tle": {"line1": "1 44337U 19035A   25357.85722722 -.00000074  00000+0  00000+0 0  9996", "line2": "2 44337  55.2291 160.4037 0037802 202.4581 157.7229  1.00267916 23910"}}, "geometry": {"type": "Point", "coordinates": [76.78903975837466, -55.02177306972231]}}, {"type": "Feature", "properties": {"norad_id": 44542, "name": "BEIDOU-3 M24 (C46)", "group": "beidou", "lat": -53.044982973535994, "lon": 116.31403843889848, "alt_km": 21541.0937579515, "timestamp": "2025-12-24T14:43:29.267204+00:00", "meta": {"OBJECT_NAME": "BEIDOU-3 M24 (C46)", "OBJECT_ID": "2019-061A", "EPOCH": "2025-12-23T15:47:40.430112", "MEAN_MOTION": 1.86229437, "ECCENTRICITY": 0.00095913, "INCLINATION": 54.4006, "RA_OF_ASC_NODE": 188.6475, "ARG_OF_PERICENTER": 26.0313, "MEAN_ANOMALY": 334.0556, "EPHEMERIS_TYPE": 0, "CLASSIFICATION_TYPE": "U", "NORAD_CAT_ID": 44542, "ELEMENT_SET_NO": 999, "REV_AT_EPOCH": 4252, "BSTAR": 0, "MEAN_MOTION_DOT": 9.9e-07, "MEAN_MOTION_DDOT": 0}, "tle": {"line1": "1 44542U 19061A   25357.65810683  .00000099  00000+0  00000+0 0  9991", "line2": "2 44542  54.4006 188.6475 0009591  26.0313 334.0556  1.86229437 42529"}}, "geometry": {"type": "Point", "coordinates": [116.31403843889848, -53.044982973535994]}}]}